[{"OBJECT_NAME":"STARLINK-34501","OBJECT_ID":"2025-129T","EPOCH":"2026-03-09T10:03:51.335424","MEAN_MOTION":14.98326747,"ECCENTRICITY":0.00033195,"INCLINATION":70.0006,"RA_OF_ASC_NODE":75.2658,"ARG_OF_PERICENTER":271.178,"MEAN_ANOMALY":88.8999,"EPHEMERIS_TYPE":0,"CLASSIFICATION_TYPE":"U","NORAD_CAT_ID":64429,"ELEMENT_SET_NO":999,"REV_AT_EPOCH":4124,"BSTAR":-9.400282e-6,"MEAN_MOTION_DOT":-2.05e-6,"MEAN_MOTION_DDOT":0},{"OBJECT_NAME":"SL-19 R\/B","OBJECT_ID":"2006-031B","EPOCH":"2026-03-09T21:44:36.709152","MEAN_MOTION":15.04470441,"ECCENTRICITY":0.01076308,"INCLINATION":98.2744,"RA_OF_ASC_NODE":54.8592,"ARG_OF_PERICENTER":119.9659,"MEAN_ANOMALY":241.2302,"EPHEMERIS_TYPE":0,"CLASSIFICATION_TYPE":"U","NORAD_CAT_ID":29269,"ELEMENT_SET_NO":999,"REV_AT_EPOCH":6907,"BSTAR":0.00022954365,"MEAN_MOTION_DOT":3.574e-5,"MEAN_MOTION_DDOT":0}]
